$$SOE
2461302.500000000, A.D. 2026-Sep-19 00:00:00.0000, -2.063475538290714E+08, -7.711822086212412E+07, 3.557904762286948E+07,
2461309.500000000, A.D. 2026-Sep-26 00:00:00.0000, -1.996209375701635E+08, -8.726802729297751E+07, 3.334191618719921E+07,
2461316.500000000, A.D. 2026-Oct-03 00:00:00.0000, -1.919892556870885E+08, -9.702175372111592E+07, 3.095364531146245E+07,
2461323.500000000, A.D. 2026-Oct-10 00:00:00.0000, -1.834497095757765E+08, -1.063161933500234E+08, 2.841904122054014E+07,
2461330.500000000, A.D. 2026-Oct-17 00:00:00.0000, -1.740006952896679E+08, -1.150829580578837E+08, 2.574359494974714E+07,
2461337.500000000, A.D. 2026-Oct-24 00:00:00.0000, -1.636423938873978E+08, -1.232475888917116E+08, 2.293367856135756E+07,
2461344.500000000, A.D. 2026-Oct-31 00:00:00.0000, -1.523775558715120E+08, -1.307285489640292E+08, 1.999679101153003E+07,
2461351.500000000, A.D. 2026-Nov-07 00:00:00.0000, -1.402125441409754E+08, -1.374360872964461E+08, 1.694186783608244E+07,
2461358.500000000, A.D. 2026-Nov-14 00:00:00.0000, -1.271587227507063E+08, -1.432709675436126E+08, 1.377967301711059E+07,
2461365.500000000, A.D. 2026-Nov-21 00:00:00.0000, -1.132343112313910E+08, -1.481230686069335E+08, 1.052329668264516E+07,
2461372.500000000, A.D. 2026-Nov-28 00:00:00.0000, -9.846686358632651E+07, -1.518698923138371E+08, 7.188788038486391E+06,
2461379.500000000, A.D. 2026-Dec-05 00:00:00.0000, -8.289657803982429E+07, -1.543750552420489E+08, 3.795959469174922E+06,
2461386.500000000, A.D. 2026-Dec-12 00:00:00.0000, -6.658070993244956E+07, -1.554869152837539E+08, 3.694046335382089E+05,
2461393.500000000, A.D. 2026-Dec-19 00:00:00.0000, -4.959943131679597E+07, -1.550376178770717E+08, -3.060223736101270E+06,
2461400.500000000, A.D. 2026-Dec-26 00:00:00.0000, -3.206353763666525E+07, -1.528430641651202E+08, -6.454637305814266E+06,
2461407.500000000, A.D. 2027-Jan-02 00:00:00.0000, -1.412440746456771E+07, -1.487046466499552E+08, -9.766025886071332E+06,
2461414.500000000, A.D. 2027-Jan-09 00:00:00.0000, 4.013516840331239E+06, -1.424141147622565E+08, -1.293492266070642E+07,
2461421.500000000, A.D. 2027-Jan-16 00:00:00.0000, 2.207792090101650E+07, -1.337636396468538E+08, -1.588803641339629E+07,
2461428.500000000, A.D. 2027-Jan-23 00:00:00.0000, 3.971276417035945E+07, -1.225639421124547E+08, -1.853655609178729E+07,
2461435.500000000, A.D. 2027-Jan-30 00:00:00.0000, 5.646478656538966E+07, -1.086738151351406E+08, -2.077590679508354E+07,
2461442.500000000, A.D. 2027-Feb-06 00:00:00.0000, 7.177921159991996E+07, -9.204348429106669E+07, -2.248856096543153E+07,
2461449.500000000, A.D. 2027-Feb-13 00:00:00.0000, 8.501556614207014E+07, -7.277020149833684E+07, -2.355199838070737E+07,
2461456.500000000, A.D. 2027-Feb-20 00:00:00.0000, 9.549634592170081E+07, -5.115551308744544E+07, -2.385351640408362E+07,
2461463.500000000, A.D. 2027-Feb-27 00:00:00.0000, 1.025949688116746E+08, -2.774118986785888E+07, -2.331124815710703E+07,
2461470.500000000, A.D. 2027-Mar-06 00:00:00.0000, 1.058503076604544E+08, -3.293775383918642E+06, -2.189623717889623E+07,
2461477.500000000, A.D. 2027-Mar-13 00:00:00.0000, 1.050696731645419E+08, 2.127962095366923E+07, -1.964630418584361E+07,
2461484.500000000, A.D. 2027-Mar-20 00:00:00.0000, 1.003729245804981E+08, 4.506656339378039E+07, -1.666354989660962E+07,
2461491.500000000, A.D. 2027-Mar-27 00:00:00.0000, 9.215532379830791E+07, 6.728470225670058E+07, -1.309524944118695E+07,
2461498.500000000, A.D. 2027-Apr-03 00:00:00.0000, 8.099025485529295E+07, 8.736700084440275E+07, -9.106735865641560E+06,
2461505.500000000, A.D. 2027-Apr-10 00:00:00.0000, 6.751790663947697E+07, 1.049796768202223E+08, -4.857141269766629E+06,
2461512.500000000, A.D. 2027-Apr-17 00:00:00.0000, 5.235753389090269E+07, 1.199898403076617E+08, -4.842323826921955E+05,
2461519.500000000, A.D. 2027-Apr-24 00:00:00.0000, 3.605660720338283E+07, 1.324117522422237E+08, 3.901401797332384E+06,
2461526.500000000, A.D. 2027-May-01 00:00:00.0000, 1.907163627561832E+07, 1.423538243670661E+08, 8.215757380250417E+06,
2461533.500000000, A.D. 2027-May-08 00:00:00.0000, 1.769038095814283E+06, 1.499766698382887E+08, 1.239766967651787E+07,
2461540.500000000, A.D. 2027-May-15 00:00:00.0000, -1.556424674657715E+07, 1.554640185039599E+08, 1.640417091955017E+07,
2461547.500000000, A.D. 2027-May-22 00:00:00.0000, -3.270703460067214E+07, 1.590044050468769E+08, 2.020613052432016E+07,
2461554.500000000, A.D. 2027-May-29 00:00:00.0000, -4.949053627308199E+07, 1.607806060975019E+08, 2.378462757320123E+07,
2461561.500000000, A.D. 2027-Jun-05 00:00:00.0000, -6.578678132808457E+07, 1.609641726125527E+08, 2.712812184328406E+07,
2461568.500000000, A.D. 2027-Jun-12 00:00:00.0000, -8.149917962110093E+07, 1.597131038424137E+08, 3.023032853869922E+07,
2461575.500000000, A.D. 2027-Jun-19 00:00:00.0000, -9.655508014644349E+07, 1.571713527510889E+08, 3.308865665840708E+07,
2461582.500000000, A.D. 2027-Jun-26 00:00:00.0000, -1.109000143489613E+08, 1.534693347057757E+08, 3.570307668375295E+07,
2461589.500000000, A.D. 2027-Jul-03 00:00:00.0000, -1.244932877549861E+08, 1.487249371442082E+08, 3.807530622326464E+07,
2461596.500000000, A.D. 2027-Jul-10 00:00:00.0000, -1.373046203504187E+08, 1.430447363836421E+08, 4.020822744443908E+07,
2461603.500000000, A.D. 2027-Jul-17 00:00:00.0000, -1.493115898237329E+08, 1.365252564731557E+08, 4.210547203900397E+07,
2461610.500000000, A.D. 2027-Jul-24 00:00:00.0000, -1.604976842299046E+08, 1.292541824677629E+08, 4.377112678267224E+07,
2461617.500000000, A.D. 2027-Jul-31 00:00:00.0000, -1.708508152674377E+08, 1.213114863630624E+08, 4.520952579770040E+07,
2461624.500000000, A.D. 2027-Aug-07 00:00:00.0000, -1.803621799283445E+08, 1.127704509544885E+08, 4.642510532595646E+07,
2461631.500000000, A.D. 2027-Aug-14 00:00:00.0000, -1.890253882109134E+08, 1.036985899541028E+08, 4.742230381630431E+07,
2461638.500000000, A.D. 2027-Aug-21 00:00:00.0000, -1.968357927548314E+08, 9.415846721307777E+07, 4.820549455638424E+07,
2461645.500000000, A.D. 2027-Aug-28 00:00:00.0000, -2.037899691914688E+08, 8.420842602663492E+07, 4.877894167710727E+07,
2461652.500000000, A.D. 2027-Sep-04 00:00:00.0000, -2.098853125113669E+08, 7.390324198915406E+07, 4.914677338964711E+07,
2461659.500000000, A.D. 2027-Sep-11 00:00:00.0000, -2.151197240749454E+08, 6.329470983668904E+07, 4.931296799284060E+07,
2461666.500000000, A.D. 2027-Sep-18 00:00:00.0000, -2.194913691332254E+08, 5.243217440709744E+07, 4.928134946513080E+07,
2461673.500000000, A.D. 2027-Sep-25 00:00:00.0000, -2.229984896206127E+08, 4.136301581956769E+07, 4.905559046135345E+07,
2461680.500000000, A.D. 2027-Oct-02 00:00:00.0000, -2.256392608991292E+08, 3.013309833180444E+07, 4.863922122583168E+07,
2461687.500000000, A.D. 2027-Oct-09 00:00:00.0000, -2.274116841316506E+08, 1.878719155677978E+07, 4.803564345062386E+07,
2461694.500000000, A.D. 2027-Oct-16 00:00:00.0000, -2.283135082937922E+08, 7.369372063034264E+06, 4.724814853192054E+07,
2461701.500000000, A.D. 2027-Oct-23 00:00:00.0000, -2.283421775890798E+08, -4.076586993834300E+06, 4.627994003242209E+07,
2461708.500000000, A.D. 2027-Oct-30 00:00:00.0000, -2.274948015813714E+08, -1.550683018868026E+07, 4.513416052122670E+07,
2461715.500000000, A.D. 2027-Nov-06 00:00:00.0000, -2.257681484009407E+08, -2.687702962224282E+07, 4.381392344968910E+07,
2461722.500000000, A.D. 2027-Nov-13 00:00:00.0000, -2.231586636743766E+08, -3.814198481641246E+07, 4.232235084655850E+07,
2461729.500000000, A.D. 2027-Nov-20 00:00:00.0000, -2.196625144967013E+08, -4.925520713665040E+07, 4.066261750409532E+07,
2461736.500000000, A.D. 2027-Nov-27 00:00:00.0000, -2.152756607753643E+08, -6.016847750435719E+07, 3.883800326161826E+07,
2461743.500000000, A.D. 2027-Dec-04 00:00:00.0000, -2.099939619420197E+08, -7.083136751366027E+07, 3.685195562748817E+07,
2461750.500000000, A.D. 2027-Dec-11 00:00:00.0000, -2.038133281107159E+08, -8.119071510050313E+07, 3.470816528510381E+07,
2461757.500000000, A.D. 2027-Dec-18 00:00:00.0000, -1.967299272650720E+08, -9.119004426556282E+07, 3.241065777644957E+07,
2461764.500000000, A.D. 2027-Dec-25 00:00:00.0000, -1.887404644973426E+08, -1.007689168526594E+08, 2.996390567640396E+07,
2461771.500000000, A.D. 2028-Jan-01 00:00:00.0000, -1.798425551361916E+08, -1.098622032322062E+08, 2.737296684079288E+07,
$$EOE